NORAD_CAT_ID,OBJECT_NAME,OBJECT_TYPE,EPOCH,MEAN_MOTION,ECCENTRICITY,INCLINATION,RA_OF_ASC_NODE,ARG_OF_PERICENTER,MEAN_ANOMALY,BSTAR,MEAN_MOTION_DOT,MEAN_MOTION_DDOT,TLE_LINE0,TLE_LINE1,TLE_LINE2,SEMIMAJOR_AXIS,PERIOD,APOGEE,PERIGEE,DECAYED
52266.0,STARLINK-3739,PAYLOAD,2022-10-29 19:15:16,15.08820858,0.0002025,53.2174,216.8288,52.9695,307.1482,0.00080466,0.00012535,0.0,0 STARLINK-3739,1 52266U 22041F   22302.80227263  .00012535  00000-0  80466-3 0  9992,2 52266  53.2174 216.8288 0002025  52.9695 307.1482 15.08820858 29141,6917.939,95.439,541.205,538.403,0.0
52266.0,STARLINK-3739,PAYLOAD,2022-10-30 03:12:10,15.08850792,0.0001945,53.2174,215.3422,50.4027,309.7137,0.00014695,2.052e-05,0.0,0 STARLINK-3739,1 52266U 22041F   22303.13345808  .00002052  00000-0  14695-3 0  9999,2 52266  53.2174 215.3422 0001945  50.4027 309.7137 15.08850792 29197,6917.847,95.437,541.058,538.367,0.0
52266.0,STARLINK-3739,PAYLOAD,2022-10-30 11:09:05,15.08858994,0.0001965,53.2175,213.8556,51.26600000000001,308.8508,0.00022272,3.26e-05,0.0,0 STARLINK-3739,1 52266U 22041F   22303.46465133  .00003260  00000-0  22272-3 0  9991,2 52266  53.2175 213.8556 0001965  51.2660 308.8508 15.08858994 29243,6917.821999999999,95.436,541.047,538.328,0.0
52266.0,STARLINK-3739,PAYLOAD,2022-10-31 10:59:53,15.08834553,0.000186,53.2172,209.395,48.8305,311.2847,-0.00011836,-2.171e-05,0.0,0 STARLINK-3739,1 52266U 22041F   22304.45826364 -.00002171  00000-0 -11836-3 0  9994,2 52266  53.2172 209.3950 0001860  48.8305 311.2847 15.08834553 30612,6917.897,95.438,541.049,538.475,0.0
52266.0,STARLINK-3739,PAYLOAD,2022-10-31 20:32:12,15.08841418,0.0001771999999999,53.217,207.6107,48.2055,311.9088,3.5547e-05,2.78e-06,0.0,0 STARLINK-3739,1 52266U 22041F   22304.85570131  .00000278  00000-0  35547-4 0  9996,2 52266  53.2170 207.6107 0001772  48.2055 311.9088 15.08841418 29455,6917.876,95.437,540.967,538.515,0.0
52266.0,STARLINK-3739,PAYLOAD,2022-11-01 12:26:04,15.08838218,0.000175,53.2161,204.637,46.0298,314.0838,0.00042348,6.458e-05,0.0,0 STARLINK-3739,1 52266U 22041F   22305.51810739  .00006458  00000-0  42348-3 0  9993,2 52266  53.2161 204.6370 0001750  46.0298 314.0838 15.08838218 29557,6917.886,95.438,540.961,538.54,0.0
52266.0,STARLINK-3739,PAYLOAD,2022-11-01 18:47:37,15.08837007,0.0001759,53.2157,203.4472,48.2444,311.8698,0.00031108,4.666e-05,0.0,0 STARLINK-3739,1 52266U 22041F   22305.78306863  .00004666  00000-0  31108-3 0  9991,2 52266  53.2157 203.4472 0001759  48.2444 311.8698 15.08837007 30813,6917.89,95.438,540.971,538.538,0.0
52266.0,STARLINK-3739,PAYLOAD,2022-11-02 02:44:33,15.08827833,0.0001791,53.2164,201.9613,48.1549,311.9596,0.00015045,2.106e-05,0.0,0 STARLINK-3739,1 52266U 22041F   22306.11427393  .00002106  00000-0  15045-3 0  9990,2 52266  53.2164 201.9613 0001791  48.1549 311.9596 15.08827833 30861,6917.918000000002,95.438,541.0219999999998,538.544,0.0
52266.0,STARLINK-3739,PAYLOAD,2022-11-02 10:41:28,15.08833591,0.0001786999999999,53.2168,200.475,48.8369,311.2777,0.00022878,3.354e-05,0.0,0 STARLINK-3739,1 52266U 22041F   22306.44547435  .00003354  00000-0  22878-3 0  9994,2 52266  53.2168 200.4750 0001787  48.8369 311.2777 15.08833591 29694,6917.9,95.438,541.001,538.529,0.0
52266.0,STARLINK-3739,PAYLOAD,2022-11-02 20:13:47,15.08838501,0.000172,53.2168,198.6909,48.1244,311.9895,0.00014999,2.1e-05,0.0,0 STARLINK-3739,1 52266U 22041F   22306.84291309  .00002100  00000-0  14999-3 0  9997,2 52266  53.2168 198.6909 0001720  48.1244 311.9895 15.08838501 29751,6917.885,95.438,540.94,538.56,0.0
52266.0,STARLINK-3739,PAYLOAD,2022-11-03 02:35:20,15.0883941,0.0001798,53.2169,197.5012,47.5212,312.5932,0.00020536,2.982e-05,0.0,0 STARLINK-3739,1 52266U 22041F   22307.10787368  .00002982  00000-0  20536-3 0  9994,2 52266  53.2169 197.5012 0001798  47.5212 312.5932 15.08839410 31019,6917.882,95.438,540.991,538.503,0.0
52266.0,STARLINK-3739,PAYLOAD,2022-11-03 04:10:43,15.08840785,0.0001801,53.2169,197.2038,44.2659,315.8477,0.00022257,3.256e-05,0.0,0 STARLINK-3739,1 52266U 22041F   22307.17411306  .00003256  00000-0  22257-3 0  9994,2 52266  53.2169 197.2038 0001801  44.2659 315.8477 15.08840785 29809,6917.878000000002,95.438,540.989,538.497,0.0
52266.0,STARLINK-3739,PAYLOAD,2022-11-03 20:04:34,15.08849982,0.0001811,53.2169,194.2303,48.0835,312.0312,0.00030454,4.563e-05,0.0,0 STARLINK-3739,1 52266U 22041F   22307.83650816  .00004563  00000-0  30454-3 0  9998,2 52266  53.2169 194.2303 0001811  48.0835 312.0312 15.08849982 29906,6917.85,95.437,540.9680000000002,538.462,0.0
52266.0,STARLINK-3739,PAYLOAD,2022-11-04 02:26:06,15.08862212,0.0001854,53.2171,193.0407,49.0088,311.1064,0.00052692,8.113e-05,0.0,0 STARLINK-3739,1 52266U 22041F   22308.10146410  .00008113  00000-0  52692-3 0  9992,2 52266  53.2171 193.0407 0001854  49.0088 311.1064 15.08862212 31165,6917.812,95.436,540.96,538.395,0.0
52266.0,STARLINK-3739,PAYLOAD,2022-11-04 04:01:29,15.08860886,0.0001879,53.217,192.7432,50.7415,309.3743,0.00052794,8.129e-05,0.0,0 STARLINK-3739,1 52266U 22041F   22308.16770490  .00008129  00000-0  52794-3 0  9999,2 52266  53.2170 192.7432 0001879  50.7415 309.3743 15.08860886 29950,6917.816999999999,95.436,540.981,538.382,0.0
52266.0,STARLINK-3739,PAYLOAD,2022-11-04 18:19:57,15.08847613,0.0001733,53.2172,190.0669,46.2083,313.9052,8.363e-05,1.043e-05,0.0,0 STARLINK-3739,1 52266U 22041F   22308.76386504  .00001043  00000-0  83630-4 0  9996,2 52266  53.2172 190.0669 0001733  46.2083 313.9052 15.08847613 31269,6917.857,95.437,540.9209999999998,538.523,0.0
52266.0,STARLINK-3739,PAYLOAD,2022-11-04 19:55:21,15.08847523,0.0001851,53.2173,189.7694,47.7462,312.3687,8.1542e-05,1.01e-05,0.0,0 STARLINK-3739,1 52266U 22041F   22308.83010530  .00001010  00000-0  81542-4 0  9991,2 52266  53.2173 189.7694 0001851  47.7462 312.3687 15.08847523 30054,6917.857,95.437,541.003,538.442,0.0
52266.0,STARLINK-3739,PAYLOAD,2022-11-05 08:38:26,15.08834856,0.0001861,53.2175,187.3902,49.1268,310.9885,1.3418e-05,-7.5e-07,0.0,0 STARLINK-3739,1 52266U 22041F   22309.36003332 -.00000075  00000-0  13418-4 0  9990,2 52266  53.2175 187.3902 0001861  49.1268 310.9885 15.08834856 30131,6917.896,95.438,541.049,538.474,0.0
52266.0,STARLINK-3739,PAYLOAD,2022-11-05 19:46:09,15.08819654,0.0001776,53.2165,185.3093,41.8071,318.3056,-0.00036742,-6.128e-05,0.0,0 STARLINK-3739,1 52266U 22041F   22309.82371889 -.00006128  00000-0 -36742-3 0  9996,2 52266  53.2165 185.3093 0001776  41.8071 318.3056 15.08819654 31429,6917.943,95.439,541.036,538.5790000000002,0.0
52266.0,STARLINK-3739,PAYLOAD,2022-11-06 03:43:05,15.08819049,0.0001846,53.217,183.8227,48.1764,311.9385,-0.00027007,-4.581e-05,0.0,0 STARLINK-3739,1 52266U 22041F   22310.15492246 -.00004581  00000-0 -27007-3 0  9990,2 52266  53.2170 183.8227 0001846  48.1764 311.9385 15.08819049 30256,6917.944,95.439,541.086,538.5319999999998,0.0
52266.0,STARLINK-3739,PAYLOAD,2022-11-06 19:36:57,15.08827496,0.0001812,53.2167,180.8494,48.2092,311.9055,0.00015169,2.126e-05,0.0,0 STARLINK-3739,1 52266U 22041F   22310.81732870  .00002126  00000-0  15169-3 0  9990,2 52266  53.2167 180.8494 0001812  48.2092 311.9055 15.08827496 31578,6917.919,95.438,541.0369999999998,538.53,0.0
52266.0,STARLINK-3739,PAYLOAD,2022-11-07 08:20:02,15.08845947,0.000172,53.2161,178.4707,46.4761,313.6374,0.00079521,0.00012392,0.0,0 STARLINK-3739,1 52266U 22041F   22311.34725102  .00012392  00000-0  79521-3 0  9997,2 52266  53.2161 178.4707 0001720  46.4761 313.6374 15.08845947 31656,6917.861999999999,95.437,540.9169999999998,538.5369999999998,0.0
52266.0,STARLINK-3739,PAYLOAD,2022-11-07 19:27:44,15.08844281,0.0001769,53.2159,176.3892,47.3832,312.7309,0.00046574,7.133e-05,0.0,0 STARLINK-3739,1 52266U 22041F   22311.81093266  .00007133  00000-0  46574-3 0  9997,2 52266  53.2159 176.3892 0001769  47.3832 312.7309 15.08844281 31723,6917.8669999999975,95.437,540.956,538.509,0.0
52266.0,STARLINK-3739,PAYLOAD,2022-11-07 21:03:07,15.08845918,0.0001774,53.2158,176.0919,47.5393,312.5749,0.00050097,7.695e-05,0.0,0 STARLINK-3739,1 52266U 22041F   22311.87717230  .00007695  00000-0  50097-3 0  9995,2 52266  53.2158 176.0919 0001774  47.5393 312.5749 15.08845918 30519,6917.861999999999,95.437,540.955,538.5,0.0
52266.0,STARLINK-3739,PAYLOAD,2022-11-08 08:10:49,15.08857155,0.0001781,53.2155,174.0103,48.2344,311.88,0.0006498,0.00010074,0.0,0 STARLINK-3739,1 52266U 22041F   22312.34084747  .00010074  00000-0  64980-3 0  9999,2 52266  53.2155 174.0103 0001781  48.2344 311.8800 15.08857155 30584,6917.828,95.436,540.925,538.461,0.0
52266.0,STARLINK-3739,PAYLOAD,2022-11-08 22:29:16,15.08874304,0.0001811,53.2153,171.3338,48.5135,311.6012,0.00071947,0.00011192,0.0,0 STARLINK-3739,1 52266U 22041F   22312.93699562  .00011192  00000-0  71947-3 0  9994,2 52266  53.2153 171.3338 0001811  48.5135 311.6012 15.08874304 31890,6917.776,95.435,540.893,538.388,0.0
52266.0,STARLINK-3739,PAYLOAD,2022-11-09 20:44:40,15.08831447,0.0002002,53.2157,167.1686,71.0431,289.0778,0.00049483,7.594e-05,0.0,0 STARLINK-3739,1 52266U 22041F   22313.86435843  .00007594  00000-0  49483-3 0  9998,2 52266  53.2157 167.1686 0002002  71.0431 289.0778 15.08831447 30815,6917.906999999997,95.438,541.156,538.387,0.0
52266.0,STARLINK-3739,PAYLOAD,2022-11-09 23:55:26,15.08820943,0.0002018,53.2151,166.5761,51.6639,308.4534,-0.00050083,-8.246e-05,0.0,0 STARLINK-3739,1 52266U 22041F   22313.99683998 -.00008246  00000-0 -50083-3 0  9993,2 52266  53.2151 166.5761 0002018  51.6639 308.4534 15.08820943 32050,6917.939,95.439,541.2,538.408,0.0
52266.0,STARLINK-3739,PAYLOAD,2022-11-10 07:52:23,15.08813557,0.0002055,53.2149,165.0895,51.1887,308.9288,0.00013417,1.846e-05,0.0,0 STARLINK-3739,1 52266U 22041F   22314.32804842  .00001846  00000-0  13417-3 0  9991,2 52266  53.2149 165.0895 0002055  51.1887 308.9288 15.08813557 30883,6917.9609999999975,95.439,541.248,538.405,0.0
